ONEWEB-0534             
1 55797U 23029B   26155.72978592 -.00000005  00000+0 -43021-4 0  9997
2 55797  87.9182 276.9532 0001856 101.2375 258.8967 13.20770716159502
ONEWEB-0556             
1 55798U 23029C   26154.29715863  .00000118  00000+0  25758-3 0  9998
2 55798  87.9178 277.2388 0002131  75.3793 284.7576 13.20773089159312
ONEWEB-0562             
1 55799U 23029D   26155.72304435 -.00000112  00000+0 -30680-3 0  9993
2 55799  87.9186 276.9329 0002459  86.1263 274.0151 13.20771725159505
ONEWEB-0563             
1 55800U 23029E   26155.71801080 -.00000027  00000+0 -97489-4 0  9999
2 55800  87.9193 276.9650 0001606 104.2496 255.8816 13.20772127159496
ONEWEB-0564             
1 55801U 23029F   26155.71127022 -.00000100  00000+0 -27871-3 0  9996
2 55801  87.9192 276.9400 0002296 105.1799 254.9589 13.20772910159500
ONEWEB-0638             
1 55802U 23029G   26154.46351618  .00000132  00000+0  32090-3 0  9990
2 55802  87.8945 292.4893 0002107  82.9123 277.2246 13.14502063157597
ONEWEB-0639             
1 55803U 23029H   26154.99142908  .00000001  00000+0 -30317-4 0  9996
2 55803  87.9159 307.6057 0000841  97.0601 263.0627 13.19726130157165
ONEWEB-0640             
1 55804U 23029J   26154.32079162 -.00000026  00000+0 -10505-3 0  9999
2 55804  87.8944 292.5080 0001730  76.5250 283.6073 13.14501972157595
ONEWEB-0641             
1 55805U 23029K   26154.98667762  .00000079  00000+0  16519-3 0  9998
2 55805  87.9164 307.5948 0001662  97.1277 263.0044 13.19727257157178
ONEWEB-0642             
1 55806U 23029L   26154.45122768  .00000049  00000+0  89005-4 0  9991
2 55806  87.9159 307.7147 0001056 108.7042 251.4206 13.19726290157090
ONEWEB-0643             
1 55807U 23029M   26155.73691023  .00000081  00000+0  18302-3 0  9996
2 55807  87.8945 292.2132 0001463 117.3126 242.8153 13.14502442157750
ONEWEB-0644             
1 55808U 23029N   26154.97719418 -.00000118  00000+0 -32738-3 0  9993
2 55808  87.9156 307.6115 0001471 101.5694 258.5604 13.19724755157160
ONEWEB-0645             
1 55809U 23029P   26153.78624216  .00000006  00000+0 -16741-4 0  9995
2 55809  87.9156 307.8460 0001438  83.9278 276.2019 13.19726988157000
ONEWEB-0646             
1 55810U 23029Q   26153.80363471 -.00000057  00000+0 -17583-3 0  9994
2 55810  87.9154 307.8422 0001688 106.1464 253.9854 13.19725132156996
ONEWEB-0648             
1 55811U 23029R   26154.33505595 -.00000121  00000+0 -36082-3 0  9996
2 55811  87.8954 292.4645 0000965  86.1560 273.9680 13.14505059157574
ONEWEB-0649             
1 55812U 23029S   26154.96614563 -.00000002  00000+0 -37831-4 0  9994
2 55812  87.9158 307.6084 0001553  91.8872 268.2438 13.19726992157182
ONEWEB-0650             
1 55813U 23029T   26154.96141129  .00000019  00000+0  14420-4 0  9993
2 55813  87.9158 307.6119 0001382 100.5233 259.6056 13.19726946157157
ONEWEB-0652             
1 55814U 23029U   26154.31603381  .00000085  00000+0  19490-3 0  9990
2 55814  87.8958 292.4759 0001961 102.6238 257.5111 13.14503783157546
ONEWEB-0653             
1 55815U 23029V   26154.45241192  .00000246  00000+0  62992-3 0  9998
2 55815  87.8954 292.4468 0001913  95.2522 264.8826 13.14502554157594
ONEWEB-0654             
1 55816U 23029W   26155.74166162  .00000213  00000+0  53964-3 0  9998
2 55816  87.8953 292.1861 0002210  93.9402 266.1980 13.14503647157782
ONEWEB-0656             
1 55817U 23029X   26155.70454857 -.00000124  00000+0 -33764-3 0  9995
2 55817  87.9192 276.9166 0002231  92.6145 267.5244 13.20771463159500
ONEWEB-0657             
1 55818U 23029Y   26153.81942509 -.00000026  00000+0 -96908-4 0  9993
2 55818  87.9159 307.8384 0002332 110.6459 249.4924 13.19726362157015
ONEWEB-0658             
1 55819U 23029Z   26154.49703356 -.00000001  00000+0 -35805-4 0  9996
2 55819  87.9168 307.6776 0001418 100.8472 259.2820 13.19726967157115
ONEWEB-0660             
1 55820U 23029AA  26153.81651281  .00000030  00000+0  46243-4 0  9990
2 55820  87.8961 292.5615 0001657  89.4634 270.6686 13.14502633157516
ONEWEB-0661             
1 55821U 23029AB  26154.46034609  .00000218  00000+0  55433-3 0  9990
2 55821  87.8943 292.4801 0001540  87.3980 272.7326 13.14501994157585
ONEWEB-0662             
1 55822U 23029AC  26155.86534684 -.00000158  00000+0 -46144-3 0  9998
2 55822  87.8944 292.2066 0001657  89.9026 270.2294 13.14501950157811
ONEWEB-0663             
1 55823U 23029AD  26155.73915420  .00000052  00000+0  95349-4 0  9999
2 55823  87.9193 276.9824 0001535  95.7833 264.3475 13.20867915159502
ONEWEB-0664             
1 55824U 23029AE  26154.32743588  .00000095  00000+0  20142-3 0  9993
2 55824  87.9177 277.2455 0002051  89.2634 270.8734 13.20771371159319
ONEWEB-0665             
1 55825U 23029AF  26154.45717800  .00000184  00000+0  46255-3 0  9998
2 55825  87.8945 292.4623 0001601  91.6396 268.4917 13.14502093157602
ONEWEB-0666             
1 55826U 23029AG  26154.32070587  .00000023  00000+0  24622-4 0  9996
2 55826  87.9183 277.2362 0002458 117.9769 242.1614 13.20769624159322
